STARLINK-1396
1 25681C 20035AA  21325.11929795  .00003362  00000-0  22519-3 0  3259
2 25681  53.0525 262.6929 0001961  64.7174 158.9110 15.06402681    17
